NORAD_CAT_ID,OBJECT_NAME,OBJECT_TYPE,EPOCH,MEAN_MOTION,ECCENTRICITY,INCLINATION,RA_OF_ASC_NODE,ARG_OF_PERICENTER,MEAN_ANOMALY,BSTAR,MEAN_MOTION_DOT,MEAN_MOTION_DDOT,TLE_LINE0,TLE_LINE1,TLE_LINE2,SEMIMAJOR_AXIS,PERIOD,APOGEE,PERIGEE,DECAYED
51971.0,STARLINK-3669,PAYLOAD,2023-02-21 04:56:59,15.08858238,0.0001464,53.2149,343.26,95.2828,264.8331,0.00059464,9.193e-05,0.0,0 STARLINK-3669,1 51971U 22025R   23052.20624396  .00009193  00000-0  59464-3 0  9991,2 51971  53.2149 343.2600 0001464  95.2828 264.8331 15.08858238 54369,6917.825,95.436,540.702,538.677,0.0
51971.0,STARLINK-3669,PAYLOAD,2023-02-22 01:37:00,15.08854234,0.0001343,53.216,339.394,85.3876,274.727,0.00062434,9.666e-05,0.0,0 STARLINK-3669,1 51971U 22025R   23053.06736582  .00009666  00000-0  62434-3 0  9993,2 51971  53.2160 339.3940 0001343  85.3876 274.7270 15.08854234 54492,6917.837,95.437,540.631,538.773,0.0
51971.0,STARLINK-3669,PAYLOAD,2023-02-22 04:47:46,15.08858555,0.0001413,53.2157,338.7984,87.9895,272.1259,0.00083483,0.0001303,0.0,0 STARLINK-3669,1 51971U 22025R   23053.19984436  .00013030  00000-0  83483-3 0  9997,2 51971  53.2157 338.7984 0001413  87.9895 272.1259 15.08858555 53405,6917.824,95.436,540.666,538.711,0.0
51971.0,STARLINK-3669,PAYLOAD,2023-02-22 19:06:15,15.08830359,0.0001458,53.2159,336.1219,96.2005,263.9153,0.00039761,6.044e-05,0.0,0 STARLINK-3669,1 51971U 22025R   23053.79601240  .00006044  00000-0  39761-3 0  9999,2 51971  53.2159 336.1219 0001458  96.2005 263.9153 15.08830359 54601,6917.91,95.438,540.783,538.766,0.0
51971.0,STARLINK-3669,PAYLOAD,2023-02-22 22:17:01,15.08834112,0.0001242,53.216,335.5272,109.163,250.9496,0.00075357,0.00011724,0.0,0 STARLINK-3669,1 51971U 22025R   23053.92849272  .00011724  00000-0  75357-3 0  9995,2 51971  53.2160 335.5272 0001242 109.1630 250.9496 15.08834112 53510,6917.898,95.438,540.623,538.904,0.0
51971.0,STARLINK-3669,PAYLOAD,2023-02-23 01:27:48,15.08836042,8.76e-05,53.2159,334.9346,81.4681,278.641,0.0014369,0.00022652,0.0,0 STARLINK-3669,1 51971U 22025R   23054.06097531  .00022652  00000-0  14369-2 0  9991,2 51971  53.2159 334.9346 0000876  81.4681 278.6410 15.08836042 54645,6917.892,95.438,540.363,539.151,0.0
51971.0,STARLINK-3669,PAYLOAD,2023-02-23 18:57:02,15.08861405,8.09e-05,53.2157,331.664,84.4269,275.6815,0.0011875,0.00018673,0.0,0 STARLINK-3669,1 51971U 22025R   23054.78961124  .00018673  00000-0  11875-2 0  9995,2 51971  53.2157 331.6640 0000809  84.4269 275.6815 15.08861405 53641,6917.815,95.436,540.24,539.12,0.0
51971.0,STARLINK-3669,PAYLOAD,2023-02-24 04:29:20,15.08892857,8.69e-05,53.2153,329.8785,81.7776,278.3315,0.0017227,0.00027275,0.0,0 STARLINK-3669,1 51971U 22025R   23055.18703902  .00027275  00000-0  17227-2 0  9993,2 51971  53.2153 329.8785 0000869  81.7776 278.3315 15.08892857 54815,6917.719,95.434,540.185,538.983,0.0
51971.0,STARLINK-3669,PAYLOAD,2023-02-24 17:12:25,15.08848485,0.000143,53.2154,327.5008,70.8347,289.2799,0.00038448,5.838e-05,0.0,0 STARLINK-3669,1 51971U 22025R   23055.71696423  .00005838  00000-0  38448-3 0  9991,2 51971  53.2154 327.5008 0001430  70.8347 289.2799 15.08848485 54890,6917.854,95.437,540.709,538.73,0.0
51971.0,STARLINK-3669,PAYLOAD,2023-02-24 23:33:58,15.08833157,0.0001256,53.2149,326.3101,22.2911,337.8136,0.00072675,0.00011295,0.0,0 STARLINK-3669,1 51971U 22025R   23055.98192790  .00011295  00000-0  72675-3 0  9992,2 51971  53.2149 326.3101 0001256  22.2911 337.8136 15.08833157 54939,6917.901,95.438,540.635,538.897,0.0
51971.0,STARLINK-3669,PAYLOAD,2023-02-25 04:20:07,15.08838569,9.91e-05,53.2149,325.4176,56.7089,303.3997,0.00092067,0.00014394,0.0,0 STARLINK-3669,1 51971U 22025R   23056.18064727  .00014394  00000-0  92067-3 0  9993,2 51971  53.2149 325.4176 0000991  56.7089 303.3997 15.08838569 53859,6917.885,95.438,540.435,539.064,0.0
51971.0,STARLINK-3669,PAYLOAD,2023-02-26 02:35:32,15.08847795,9.56e-05,53.2148,321.2532,77.7804,282.3295,0.00089214,0.00013942,0.0,0 STARLINK-3669,1 51971U 22025R   23057.10801213  .00013942  00000-0  89214-3 0  9993,2 51971  53.2148 321.2532 0000956  77.7804 282.3295 15.08847795 55105,6917.857,95.437,540.383,539.06,0.0
51971.0,STARLINK-3669,PAYLOAD,2023-02-26 16:54:02,15.0878573,6.06e-05,53.2155,318.5785,118.6885,241.4168,-0.00070582,-0.00011486,0.0,0 STARLINK-3669,1 51971U 22025R   23057.70420037 -.00011486  00000-0 -70582-3 0  9991,2 51971  53.2155 318.5785 0000606 118.6885 241.4168 15.08785730 55192,6918.046,95.441,540.331,539.492,0.0
51971.0,STARLINK-3669,PAYLOAD,2023-02-27 05:37:29,15.08374934,0.0001304,53.2151,316.2008,61.3925,298.7198,-0.0070848,-0.00109919,0.0,0 STARLINK-3669,1 51971U 22025R   23058.23436778 -.00109919  00000-0 -70848-2 0  9992,2 51971  53.2151 316.2008 0001304  61.3925 298.7198 15.08374934 55273,6919.302,95.467,542.07,540.265,0.0
51971.0,STARLINK-3669,PAYLOAD,2023-02-27 16:45:26,15.08277334,0.0001235,53.2155,314.116,90.3135,269.7998,-0.0066462,-0.00102958,0.0,0 STARLINK-3669,1 51971U 22025R   23058.69822427 -.00102958  00000-0 -66462-2 0  9995,2 51971  53.2155 314.1160 0001235  90.3135 269.7998 15.08277334 55341,6919.601,95.473,542.32,540.611,0.0
51971.0,STARLINK-3669,PAYLOAD,2023-02-28 03:53:27,15.08199972,0.0001311,53.2154,312.0357,100.4632,259.6507,-0.004853,-0.00075387,0.0,0 STARLINK-3669,1 51971U 22025R   23059.16212794 -.00075387  00000-0 -48530-2 0  9999,2 51971  53.2154 312.0357 0001311 100.4632 259.6507 15.08199972 55418,6919.837,95.478,542.61,540.795,0.0
51971.0,STARLINK-3669,PAYLOAD,2023-02-28 08:39:47,15.08142472,0.0001156,53.2157,311.1441,85.4401,274.6723,-0.0045517,-0.0007066,0.0,0 STARLINK-3669,1 51971U 22025R   23059.36096173 -.00070660  00000-0 -45517-2 0  9993,2 51971  53.2157 311.1441 0001156  85.4401 274.6723 15.08142472 54338,6920.013,95.482,542.678,541.078,0.0
51971.0,STARLINK-3669,PAYLOAD,2023-02-28 16:37:00,15.08068298,0.0001041,53.2153,309.6593,99.1129,260.998,-0.0022103,-0.00034563,0.0,0 STARLINK-3669,1 51971U 22025R   23059.69236220 -.00034563  00000-0 -22103-2 0  9996,2 51971  53.2153 309.6593 0001041  99.1129 260.9980 15.08068298 55490,6920.24,95.486,542.826,541.385,0.0
51971.0,STARLINK-3669,PAYLOAD,2023-02-28 22:58:44,15.08062118,0.0001054,53.2159,308.4701,108.3731,251.7376,-0.0014652,-0.00023041,0.0,0 STARLINK-3669,1 51971U 22025R   23059.95746402 -.00023041  00000-0 -14652-2 0  9992,2 51971  53.2159 308.4701 0001054 108.3731 251.7376 15.08062118 54424,6920.259,95.487,542.853,541.395,0.0
51971.0,STARLINK-3669,PAYLOAD,2023-03-01 18:04:00,15.08043223,0.0001013,53.2161,304.9035,128.2945,231.8138,0.00040094,5.964e-05,0.0,0 STARLINK-3669,1 51971U 22025R   23060.75278144  .00005964  00000-0  40094-3 0  9997,2 51971  53.2161 304.9035 0001013 128.2945 231.8138 15.08043223 55658,6920.317,95.488,542.883,541.481,0.0
51971.0,STARLINK-3669,PAYLOAD,2023-03-01 21:14:52,15.0805866,0.0001452,53.2167,304.3109,114.1585,245.9559,0.00063082,9.555e-05,0.0,0 STARLINK-3669,1 51971U 22025R   23060.88532589  .00009555  00000-0  63082-3 0  9999,2 51971  53.2167 304.3109 0001452 114.1585 245.9559 15.08058660 54564,6920.27,95.487,543.139,541.13,0.0
51971.0,STARLINK-3669,PAYLOAD,2023-03-02 02:01:10,15.08071233,0.0001071,53.2151,303.4174,110.5192,249.5914,0.0011477,0.00017646,0.0,0 STARLINK-3669,1 51971U 22025R   23061.08414941  .00017646  00000-0  11477-2 0  9993,2 51971  53.2151 303.4174 0001071 110.5192 249.5914 15.08071233 55703,6920.231,95.486,542.837,541.355,0.0
51971.0,STARLINK-3669,PAYLOAD,2023-03-02 19:30:58,15.08058247,8.8e-05,53.2147,300.1495,107.2655,252.8433,0.00048169,7.227e-05,0.0,0 STARLINK-3669,1 51971U 22025R   23061.81317487  .00007227  00000-0  48169-3 0  9994,2 51971  53.2147 300.1495 0000880 107.2655 252.8433 15.08058247 54704,6920.271,95.487,542.745,541.527,0.0
51971.0,STARLINK-3669,PAYLOAD,2023-03-02 22:41:50,15.08057579,0.0001013,53.2147,299.5548,110.9559,249.1541,0.0004892,7.344e-05,0.0,0 STARLINK-3669,1 51971U 22025R   23061.94572421  .00007344  00000-0  48920-3 0  9994,2 51971  53.2147 299.5548 0001013 110.9559 249.1541 15.08057579 55838,6920.273,95.487,542.839,541.437,0.0
51971.0,STARLINK-3669,PAYLOAD,2023-03-03 22:33:22,15.08072503,0.0001098,53.2149,295.0993,99.1166,260.995,0.00089119,0.00013631,0.0,0 STARLINK-3669,1 51971U 22025R   23062.93984090  .00013631  00000-0  89119-3 0  9994,2 51971  53.2149 295.0993 0001098  99.1166 260.9950 15.08072503 54872,6920.227,95.486,542.852,541.332,0.0
51971.0,STARLINK-3669,PAYLOAD,2023-03-04 01:44:14,15.08084745,0.0001158,53.2142,294.5028,88.8622,271.2502,0.001456,0.00022486,0.0,0 STARLINK-3669,1 51971U 22025R   23063.07238747  .00022486  00000-0  14560-2 0  9996,2 51971  53.2142 294.5028 0001158  88.8622 271.2502 15.08084745 56003,6920.19,95.485,542.856,541.254,0.0
51971.0,STARLINK-3669,PAYLOAD,2023-03-04 14:27:44,15.0803806,7.71e-05,53.2135,292.1277,92.1101,267.9979,-0.00034462,-5.647e-05,0.0,0 STARLINK-3669,1 51971U 22025R   23063.60259391 -.00005647  00000-0 -34462-3 0  9999,2 51971  53.2135 292.1277 0000771  92.1101 267.9979 15.08038060 56082,6920.333,95.488,542.731,541.664,0.0
51971.0,STARLINK-3669,PAYLOAD,2023-03-05 01:35:47,15.08045879,0.0001683,53.2126,290.0456,106.1151,254.0026,0.00035571,5.258e-05,0.0,0 STARLINK-3669,1 51971U 22025R   23064.06651985  .00005258  00000-0  35571-3 0  9993,2 51971  53.2126 290.0456 0001683 106.1151 254.0026 15.08045879 56156,6920.309,95.488,543.338,541.009,0.0
51971.0,STARLINK-3669,PAYLOAD,2023-03-05 22:16:27,15.08040117,0.0001183,53.2102,286.1775,109.1834,250.9286,0.000357,5.278e-05,0.0,0 STARLINK-3669,1 51971U 22025R   23064.92809947  .00005278  00000-0  35700-3 0  9997,2 51971  53.2102 286.1775 0001183 109.1834 250.9286 15.08040117 56283,6920.326,95.488,543.01,541.373,0.0
51971.0,STARLINK-3669,PAYLOAD,2023-03-06 20:32:34,15.08047314,0.0001513,53.2079,282.0176,97.0664,263.05,0.00036646,5.426e-05,0.0,0 STARLINK-3669,1 51971U 22025R   23065.85594992  .00005426  00000-0  36646-3 0  9996,2 51971  53.2079 282.0176 0001513  97.0664 263.0500 15.08047314 55312,6920.304,95.488,543.216,541.122,0.0
